{
  "type": "FeatureCollection",
  "features": [
    {
      "type": "Feature",
      "properties": {
        "norad_id": 43260,
        "name": "GAOFEN-1 03",
        "group": "resource",
        "lat": 10.70793478561498,
        "lon": -137.31352678575314,
        "alt_km": 643.666364004981,
        "timestamp": "2025-12-09T11:33:54.458018+00:00",
        "meta_object_name": "GAOFEN-1 03",
        "meta_object_id": "2018-031B",
        "meta_epoch": "2025-12-09T04:17:44.208960",
        "meta_mean_motion": 14.76424531,
        "meta_eccentricity": 0.0002223,
        "meta_inclination": 98.0804,
        "meta_ra_of_asc_node": 40.8441,
        "meta_arg_of_pericenter": 337.4829,
        "meta_mean_anomaly": 22.6283,
        "meta_ephemeris_type": 0,
        "meta_classification_type": "U",
        "meta_norad_cat_id": 43260,
        "meta_element_set_no": 999,
        "meta_rev_at_epoch": 41465,
        "meta_bstar": 0.00021648,
        "meta_mean_motion_dot": 1.453e-05,
        "meta_mean_motion_ddot": 0,
        "tle_line1": "1 43260U 18031B   25343.17898390  .00001453  00000+0  21648-3 0  9996",
        "tle_line2": "2 43260  98.0804  40.8441 0002223 337.4829  22.6283 14.76424531414652"
      },
      "geometry": {
        "type": "Point",
        "coordinates": [
          -137.31352678575314,
          10.70793478561498
        ]
      }
    },
    {
      "type": "Feature",
      "properties": {
        "norad_id": 43262,
        "name": "GAOFEN-1 04",
        "group": "resource",
        "lat": -60.72867979468437,
        "lon": 55.99922642124356,
        "alt_km": 648.1299105195858,
        "timestamp": "2025-12-09T11:33:54.458027+00:00",
        "meta_object_name": "GAOFEN-1 04",
        "meta_object_id": "2018-031D",
        "meta_epoch": "2025-12-09T05:20:18.314880",
        "meta_mean_motion": 14.76438837,
        "meta_eccentricity": 0.0001184,
        "meta_inclination": 98.0809,
        "meta_ra_of_asc_node": 41.0565,
        "meta_arg_of_pericenter": 56.9702,
        "meta_mean_anomaly": 303.1621,
        "meta_ephemeris_type": 0,
        "meta_classification_type": "U",
        "meta_norad_cat_id": 43262,
        "meta_element_set_no": 999,
        "meta_rev_at_epoch": 41465,
        "meta_bstar": 0.00020794,
        "meta_mean_motion_dot": 1.394e-05,
        "meta_mean_motion_ddot": 0,
        "tle_line1": "1 43262U 18031D   25343.22243420  .00001394  00000+0  20794-3 0  9997",
        "tle_line2": "2 43262  98.0809  41.0565 0001184  56.9702 303.1621 14.76438837414654"
      },
      "geometry": {
        "type": "Point",
        "coordinates": [
          55.99922642124356,
          -60.72867979468437
        ]
      }
    },
    {
      "type": "Feature",
      "properties": {
        "norad_id": 43437,
        "name": "SENTINEL-3B",
        "group": "resource",
        "lat": -32.7401257653468,
        "lon": 54.315297377895334,
        "alt_km": 809.5490892627704,
        "timestamp": "2025-12-09T11:33:54.458037+00:00",
        "meta_object_name": "SENTINEL-3B",
        "meta_object_id": "2018-039A",
        "meta_epoch": "2025-12-09T03:18:16.928352",
        "meta_mean_motion": 14.26740637,
        "meta_eccentricity": 0.0001536,
        "meta_inclination": 98.627,
        "meta_ra_of_asc_node": 48.3743,
        "meta_arg_of_pericenter": 106.3864,
        "meta_mean_anomaly": 253.7485,
        "meta_ephemeris_type": 0,
        "meta_classification_type": "U",
        "meta_norad_cat_id": 43437,
        "meta_element_set_no": 999,
        "meta_rev_at_epoch": 39702,
        "meta_bstar": 0.00011479,
        "meta_mean_motion_dot": 2.34e-06,
        "meta_mean_motion_ddot": 0,
        "tle_line1": "1 43437U 18039A   25343.13769593  .00000234  00000+0  11479-3 0  9995",
        "tle_line2": "2 43437  98.6270  48.3743 0001536 106.3864 253.7485 14.26740637397022"
      },
      "geometry": {
        "type": "Point",
        "coordinates": [
          54.315297377895334,
          -32.7401257653468
        ]
      }
    },
    {
      "type": "Feature",
      "properties": {
        "norad_id": 43461,
        "name": "GAOFEN-5 01",
        "group": "resource",
        "lat": -75.59875851723918,
        "lon": -18.320363631147067,
        "alt_km": 698.9065103074099,
        "timestamp": "2025-12-09T11:33:54.458047+00:00",
        "meta_object_name": "GAOFEN-5 01",
        "meta_object_id": "2018-043A",
        "meta_epoch": "2025-12-09T03:42:04.748832",
        "meta_mean_motion": 14.604036,
        "meta_eccentricity": 0.0001202,
        "meta_inclination": 98.432,
        "meta_ra_of_asc_node": 306.0589,
        "meta_arg_of_pericenter": 354.0003,
        "meta_mean_anomaly": 6.1182,
        "meta_ephemeris_type": 0,
        "meta_classification_type": "U",
        "meta_norad_cat_id": 43461,
        "meta_element_set_no": 999,
        "meta_rev_at_epoch": 40395,
        "meta_bstar": 0.00017879,
        "meta_mean_motion_dot": 8.17e-06,
        "meta_mean_motion_ddot": 0,
        "tle_line1": "1 43461U 18043A   25343.15422163  .00000817  00000+0  17879-3 0  9995",
        "tle_line2": "2 43461  98.4320 306.0589 0001202 354.0003   6.1182 14.60403600403950"
      },
      "geometry": {
        "type": "Point",
        "coordinates": [
          -18.320363631147067,
          -75.59875851723918
        ]
      }
    },
    {
      "type": "Feature",
      "properties": {
        "norad_id": 43484,
        "name": "GAOFEN-6",
        "group": "resource",
        "lat": 81.99219341557185,
        "lon": -29.250031033146623,
        "alt_km": 623.7664273919636,
        "timestamp": "2025-12-09T11:33:54.458057+00:00",
        "meta_object_name": "GAOFEN-6",
        "meta_object_id": "2018-048A",
        "meta_epoch": "2025-12-09T04:39:44.522784",
        "meta_mean_motion": 14.76554468,
        "meta_eccentricity": 0.0013283,
        "meta_inclination": 97.8033,
        "meta_ra_of_asc_node": 47.5801,
        "meta_arg_of_pericenter": 73.7948,
        "meta_mean_anomaly": 286.4723,
        "meta_ephemeris_type": 0,
        "meta_classification_type": "U",
        "meta_norad_cat_id": 43484,
        "meta_element_set_no": 999,
        "meta_rev_at_epoch": 40535,
        "meta_bstar": 0.0001072,
        "meta_mean_motion_dot": 6.99e-06,
        "meta_mean_motion_ddot": 0,
        "tle_line1": "1 43484U 18048A   25343.19426531  .00000699  00000+0  10720-3 0  9998",
        "tle_line2": "2 43484  97.8033  47.5801 0013283  73.7948 286.4723 14.76554468405354"
      },
      "geometry": {
        "type": "Point",
        "coordinates": [
          -29.250031033146623,
          81.99219341557185
        ]
      }
    },
    {
      "type": "Feature",
      "properties": {
        "norad_id": 43585,
        "name": "GAOFEN-11 01",
        "group": "resource",
        "lat": 54.37328415973195,
        "lon": -123.45943725048122,
        "alt_km": 417.1585146449888,
        "timestamp": "2025-12-09T11:33:54.458067+00:00",
        "meta_object_name": "GAOFEN-11 01",
        "meta_object_id": "2018-063A",
        "meta_epoch": "2025-12-09T04:49:34.707360",
        "meta_mean_motion": 15.49068217,
        "meta_eccentricity": 0.0004548,
        "meta_inclination": 97.1558,
        "meta_ra_of_asc_node": 46.1653,
        "meta_arg_of_pericenter": 330.1363,
        "meta_mean_anomaly": 29.9628,
        "meta_ephemeris_type": 0,
        "meta_classification_type": "U",
        "meta_norad_cat_id": 43585,
        "meta_element_set_no": 999,
        "meta_rev_at_epoch": 41087,
        "meta_bstar": 0.00038551,
        "meta_mean_motion_dot": 0.00020852,
        "meta_mean_motion_ddot": 0,
        "tle_line1": "1 43585U 18063A   25343.20109615  .00020852  00000+0  38551-3 0  9995",
        "tle_line2": "2 43585  97.1558  46.1653 0004548 330.1363  29.9628 15.49068217410876"
      },
      "geometry": {
        "type": "Point",
        "coordinates": [
          -123.45943725048122,
          54.37328415973195
        ]
      }
    },
    {
      "type": "Feature",
      "properties": {
        "norad_id": 43613,
        "name": "ICESAT-2",
        "group": "resource",
        "lat": 73.93121314015809,
        "lon": 66.84163962569654,
        "alt_km": 473.0969847318638,
        "timestamp": "2025-12-09T11:33:54.458077+00:00",
        "meta_object_name": "ICESAT-2",
        "meta_object_id": "2018-070A",
        "meta_epoch": "2025-12-09T03:14:44.602080",
        "meta_mean_motion": 15.28253832,
        "meta_eccentricity": 0.0002212,
        "meta_inclination": 92.0044,
        "meta_ra_of_asc_node": 239.7645,
        "meta_arg_of_pericenter": 158.2471,
        "meta_mean_anomaly": 201.8873,
        "meta_ephemeris_type": 0,
        "meta_classification_type": "U",
        "meta_norad_cat_id": 43613,
        "meta_element_set_no": 999,
        "meta_rev_at_epoch": 40343,
        "meta_bstar": 0.00056042,
        "meta_mean_motion_dot": 0.00015431,
        "meta_mean_motion_ddot": 0,
        "tle_line1": "1 43613U 18070A   25343.13523845  .00015431  00000+0  56042-3 0  9994",
        "tle_line2": "2 43613  92.0044 239.7645 0002212 158.2471 201.8873 15.28253832403431"
      },
      "geometry": {
        "type": "Point",
        "coordinates": [
          66.84163962569654,
          73.93121314015809
        ]
      }
    }
  ]
}